JY1SAT (JO-97)          
1 43803U 18099AX  26068.68634132  .00017774  00000+0  60804-3 0  9996
2 43803  97.4249 131.3625 0004723 256.6795 103.3919 15.30302628398390
STARLINK-32861          
1 62870U 25022S   26068.49126554  .00025520  00000+0  87061-3 0  9990
2 62870  53.1604 130.2592 0001216  86.9446 273.1694 15.30206511 61871
